{
  "type": "FeatureCollection",
  "properties": {
    "city": "Chennai",
    "center": [80.2707, 13.0827]
  },
  "features": [
    {
      "type": "Feature",
      "properties": {
        "id": "anna_salai_1",
        "name": "Anna Salai (North)",
        "from_node": "n_t_nungambakkam",
        "to_node": "n_government_estate",
        "length_km": 1.2,
        "capacity_vph": 2800,
        "free_flow_min": 2.5
      },
      "geometry": {
        "type": "LineString",
        "coordinates": [
          [80.2420, 13.0608],
          [80.2480, 13.0650],
          [80.2550, 13.0700],
          [80.2620, 13.0750]
        ]
      }
    },
    {
      "type": "Feature",
      "properties": {
        "id": "anna_salai_2",
        "name": "Anna Salai (Central)",
        "from_node": "n_government_estate",
        "to_node": "n_temple",
        "length_km": 1.5,
        "capacity_vph": 3000,
        "free_flow_min": 3.0
      },
      "geometry": {
        "type": "LineString",
        "coordinates": [
          [80.2620, 13.0750],
          [80.2680, 13.0780],
          [80.2720, 13.0800],
          [80.2760, 13.0820]
        ]
      }
    },
    {
      "type": "Feature",
      "properties": {
        "id": "anna_salai_3",
        "name": "Anna Salai (South)",
        "from_node": "n_temple",
        "to_node": "n_tidel",
        "length_km": 1.8,
        "capacity_vph": 2800,
        "free_flow_min": 3.5
      },
      "geometry": {
        "type": "LineString",
        "coordinates": [
          [80.2760, 13.0820],
          [80.2800, 13.0840],
          [80.2850, 13.0870],
          [80.2900, 13.0900]
        ]
      }
    },
    {
      "type": "Feature",
      "properties": {
        "id": "mount_road_1",
        "name": "Mount Road (West)",
        "from_node": "n_chetpet",
        "to_node": "n_government_estate",
        "length_km": 1.4,
        "capacity_vph": 2400,
        "free_flow_min": 3.0
      },
      "geometry": {
        "type": "LineString",
        "coordinates": [
          [80.2350, 13.0720],
          [80.2420, 13.0740],
          [80.2500, 13.0755],
          [80.2620, 13.0750]
        ]
      }
    },
    {
      "type": "Feature",
      "properties": {
        "id": "mount_road_2",
        "name": "Mount Road (East)",
        "from_node": "n_government_estate",
        "to_node": "n_marina",
        "length_km": 2.0,
        "capacity_vph": 2600,
        "free_flow_min": 4.0
      },
      "geometry": {
        "type": "LineString",
        "coordinates": [
          [80.2620, 13.0750],
          [80.2700, 13.0760],
          [80.2780, 13.0770],
          [80.2860, 13.0780]
        ]
      }
    },
    {
      "type": "Feature",
      "properties": {
        "id": "poonamallee_1",
        "name": "Poonamallee High Road",
        "from_node": "n_kilpauk",
        "to_node": "n_temple",
        "length_km": 2.2,
        "capacity_vph": 2200,
        "free_flow_min": 4.5
      },
      "geometry": {
        "type": "LineString",
        "coordinates": [
          [80.2300, 13.0850],
          [80.2400, 13.0830],
          [80.2500, 13.0810],
          [80.2600, 13.0800],
          [80.2760, 13.0820]
        ]
      }
    },
    {
      "type": "Feature",
      "properties": {
        "id": "cathedral_road",
        "name": "Cathedral Road",
        "from_node": "n_nandanam",
        "to_node": "n_temple",
        "length_km": 1.6,
        "capacity_vph": 1800,
        "free_flow_min": 3.5
      },
      "geometry": {
        "type": "LineString",
        "coordinates": [
          [80.2500, 13.0700],
          [80.2580, 13.0730],
          [80.2660, 13.0760],
          [80.2760, 13.0820]
        ]
      }
    },
    {
      "type": "Feature",
      "properties": {
        "id": "egmore_road",
        "name": "Egmore Road",
        "from_node": "n_egmore",
        "to_node": "n_government_estate",
        "length_km": 1.3,
        "capacity_vph": 2000,
        "free_flow_min": 3.0
      },
      "geometry": {
        "type": "LineString",
        "coordinates": [
          [80.2600, 13.0800],
          [80.2620, 13.0780],
          [80.2620, 13.0750]
        ]
      }
    },
    {
      "type": "Feature",
      "properties": {
        "id": "beach_road",
        "name": "Beach Road",
        "from_node": "n_marina",
        "to_node": "n_tidel",
        "length_km": 2.5,
        "capacity_vph": 2000,
        "free_flow_min": 5.0
      },
      "geometry": {
        "type": "LineString",
        "coordinates": [
          [80.2860, 13.0780],
          [80.2880, 13.0820],
          [80.2900, 13.0860],
          [80.2900, 13.0900]
        ]
      }
    },
    {
      "type": "Feature",
      "properties": {
        "id": "velachery_main",
        "name": "Velachery Main Road",
        "from_node": "n_tidel",
        "to_node": "n_adyar",
        "length_km": 2.8,
        "capacity_vph": 2200,
        "free_flow_min": 5.5
      },
      "geometry": {
        "type": "LineString",
        "coordinates": [
          [80.2900, 13.0900],
          [80.2950, 13.0950],
          [80.3000, 13.1000],
          [80.3050, 13.1050]
        ]
      }
    },
    {
      "type": "Feature",
      "properties": {
        "id": "nungambakkam_high",
        "name": "Nungambakkam High Road",
        "from_node": "n_nungambakkam",
        "to_node": "n_chetpet",
        "length_km": 1.5,
        "capacity_vph": 1800,
        "free_flow_min": 3.5
      },
      "geometry": {
        "type": "LineString",
        "coordinates": [
          [80.2420, 13.0608],
          [80.2380, 13.0650],
          [80.2350, 13.0720]
        ]
      }
    },
    {
      "type": "Feature",
      "properties": {
        "id": "kilpauk_road",
        "name": "Kilpauk Road",
        "from_node": "n_kilpauk",
        "to_node": "n_egmore",
        "length_km": 1.2,
        "capacity_vph": 1600,
        "free_flow_min": 3.0
      },
      "geometry": {
        "type": "LineString",
        "coordinates": [
          [80.2300, 13.0850],
          [80.2400, 13.0830],
          [80.2500, 13.0810],
          [80.2600, 13.0800]
        ]
      }
    }
  ]
}
